start=new Date('2021-11-12T00:00:00.000Z').valueOf();
sats=[{"EPHEMERIS_TYPE":"0","OBJECT_ID":"2020-070Y","CLASSIFICATION_TYPE":"U","NORAD_CAT_ID":"46554","MEAN_ANOMALY":"287.2326","FILE":"3212485","LAUNCH_DATE":"2020-10-06","COUNTRY_CODE":"US","PERIAPSIS":"546.232","TLE_LINE2":"2 46554  53.0551  50.2948 0001462  72.8823 287.2326 15.06389756 61711","BSTAR":"0.00005186200000","MEAN_ELEMENT_THEORY":"SGP4","OBJECT_TYPE":"PAYLOAD","TLE_LINE1":"1 46554U 20070Y   21315.63058767  .00000491  00000-0  51862-4 0  9997","GP_ID":"189527489","ELEMENT_SET_NO":"999","SEMIMAJOR_AXIS":"6925.380","APOAPSIS":"548.257","REV_AT_EPOCH":"6171","PERIOD":"95.593","INCLINATION":"53.0551","TIME_SYSTEM":"UTC","RCS_SIZE":"LARGE","EPOCH":"2021-11-11T15:08:02.774688","CENTER_NAME":"EARTH","MEAN_MOTION_DOT":"0.00000491","ECCENTRICITY":"0.00014620","DECAY_DATE":null,"OBJECT_NAME":"STARLINK-1671","SITE":"AFETR","RA_OF_ASC_NODE":"50.2948","MEAN_MOTION_DDOT":"0.0000000000000","ARG_OF_PERICENTER":"72.8823","MEAN_MOTION":"15.06389756","REF_FRAME":"TEME"},{"PERIOD":"90.512","APOAPSIS":"300.847","REV_AT_EPOCH":"6240","SEMIMAJOR_AXIS":"6677.753","ELEMENT_SET_NO":"999","EPOCH":"2021-11-11T10:41:14.354592","RCS_SIZE":"LARGE","TIME_SYSTEM":"UTC","INCLINATION":"53.0504","MEAN_MOTION_DOT":"0.00058915","CENTER_NAME":"EARTH","REF_FRAME":"TEME","MEAN_MOTION":"15.90952592","ARG_OF_PERICENTER":"42.1438","MEAN_MOTION_DDOT":"0.0000124120000","SITE":"AFETR","RA_OF_ASC_NODE":"359.8008","DECAY_DATE":null,"ECCENTRICITY":"0.00018410","OBJECT_NAME":"STARLINK-1674","FILE":"3212088","NORAD_CAT_ID":"46555","MEAN_ANOMALY":"317.9729","CLASSIFICATION_TYPE":"U","OBJECT_ID":"2020-070Z","EPHEMERIS_TYPE":"0","LAUNCH_DATE":"2020-10-06","MEAN_ELEMENT_THEORY":"SGP4","BSTAR":"0.00019364000000","TLE_LINE2":"2 46555  53.0504 359.8008 0001841  42.1438 317.9729 15.90952592 62400","PERIAPSIS":"298.389","COUNTRY_CODE":"US","GP_ID":"189494704","TLE_LINE1":"1 46555U 20070Z   21315.44530503  .00058915  12412-4  19364-3 0  9998","OBJECT_TYPE":"PAYLOAD"},{"RCS_SIZE":"LARGE","EPOCH":"2021-11-11T19:44:42.172512","INCLINATION":"53.0550","TIME_SYSTEM":"UTC","PERIOD":"95.592","SEMIMAJOR_AXIS":"6925.329","ELEMENT_SET_NO":"999","APOAPSIS":"548.181","REV_AT_EPOCH":"6153","RA_OF_ASC_NODE":"64.4340","SITE":"AFETR","ARG_OF_PERICENTER":"86.1951","MEAN_MOTION_DDOT":"0.0000000000000","MEAN_MOTION":"15.06406231","REF_FRAME":"TEME","DECAY_DATE":null,"OBJECT_NAME":"STARLINK-1676","ECCENTRICITY":"0.00014250","CENTER_NAME":"EARTH","MEAN_MOTION_DOT":"0.00001288","LAUNCH_DATE":"2020-10-06","CLASSIFICATION_TYPE":"U","NORAD_CAT_ID":"46556","MEAN_ANOMALY":"273.9201","FILE":"3212485","EPHEMERIS_TYPE":"0","OBJECT_ID":"2020-070AA","TLE_LINE1":"1 46556U 20070AA  21315.82271033  .00001288  00000-0  10535-3 0  9999","GP_ID":"189526488","OBJECT_TYPE":"PAYLOAD","PERIAPSIS":"546.208","TLE_LINE2":"2 46556  53.0550  64.4340 0001425  86.1951 273.9201 15.06406231 61536","MEAN_ELEMENT_THEORY":"SGP4","BSTAR":"0.00010535000000","COUNTRY_CODE":"US"},{"PERIOD":"95.593","REV_AT_EPOCH":"6171","APOAPSIS":"548.204","SEMIMAJOR_AXIS":"6925.371","ELEMENT_SET_NO":"999","EPOCH":"2021-11-11T14:25:34.880160","RCS_SIZE":"LARGE","INCLINATION":"53.0560","TIME_SYSTEM":"UTC","MEAN_MOTION_DOT":"-0.00000202","CENTER_NAME":"EARTH","REF_FRAME":"TEME","MEAN_MOTION":"15.06392631","ARG_OF_PERICENTER":"75.8527","MEAN_MOTION_DDOT":"0.0000000000000","RA_OF_ASC_NODE":"50.4243","SITE":"AFETR","OBJECT_NAME":"STARLINK-1679","DECAY_DATE":null,"ECCENTRICITY":"0.00013970","FILE":"3212485","NORAD_CAT_ID":"46557","MEAN_ANOMALY":"284.2617","CLASSIFICATION_TYPE":"U","OBJECT_ID":"2020-070AB","EPHEMERIS_TYPE":"0","LAUNCH_DATE":"2020-10-06","MEAN_ELEMENT_THEORY":"SGP4","BSTAR":"0.00000532000000","TLE_LINE2":"2 46557  53.0560  50.4243 0001397  75.8527 284.2617 15.06392631 61711","PERIAPSIS":"546.269","COUNTRY_CODE":"US","GP_ID":"189526738","TLE_LINE1":"1 46557U 20070AB  21315.60109815 -.00000202  00000-0  53200-5 0  9998","OBJECT_TYPE":"PAYLOAD"},{"DECAY_DATE":null,"ECCENTRICITY":"0.00013180","OBJECT_NAME":"STARLINK-1680","RA_OF_ASC_NODE":"49.7977","SITE":"AFETR","MEAN_MOTION_DDOT":"0.0000000000000","ARG_OF_PERICENTER":"83.4932","MEAN_MOTION":"15.06396488","REF_FRAME":"TEME","CENTER_NAME":"EARTH","MEAN_MOTION_DOT":"-0.00001614","INCLINATION":"53.0549","TIME_SYSTEM":"UTC","RCS_SIZE":"LARGE","EPOCH":"2021-11-11T17:47:16.593792","ELEMENT_SET_NO":"999","SEMIMAJOR_AXIS":"6925.359","REV_AT_EPOCH":"6170","APOAPSIS":"548.137","PERIOD":"95.592","OBJECT_TYPE":"PAYLOAD","TLE_LINE1":"1 46558U 20070AC  21315.74116428 -.00001614  00000-0 -89493-4 0  9993","GP_ID":"189526992","COUNTRY_CODE":"US","PERIAPSIS":"546.312","TLE_LINE2":"2 46558  53.0549  49.7977 0001318  83.4932 276.6207 15.06396488 61705","MEAN_ELEMENT_THEORY":"SGP4","BSTAR":"-0.00008949300000","LAUNCH_DATE":"2020-10-06","EPHEMERIS_TYPE":"0","OBJECT_ID":"2020-070AC","CLASSIFICATION_TYPE":"U","MEAN_ANOMALY":"276.6207","NORAD_CAT_ID":"46558","FILE":"3212485"},{"OBJECT_TYPE":"PAYLOAD","GP_ID":"189527243","TLE_LINE1":"1 46559U 20070AD  21315.72964713 -.00002246  00000-0 -13192-3 0  9994","COUNTRY_CODE":"US","MEAN_ELEMENT_THEORY":"SGP4","BSTAR":"-0.00013192000000","TLE_LINE2":"2 46559  53.0551  34.8445 0001319  76.1781 283.9355 15.06397900 61936","PERIAPSIS":"546.307","LAUNCH_DATE":"2020-10-06","OBJECT_ID":"2020-070AD","EPHEMERIS_TYPE":"0","FILE":"3212485","NORAD_CAT_ID":"46559","MEAN_ANOMALY":"283.9355","CLASSIFICATION_TYPE":"U","DECAY_DATE":null,"ECCENTRICITY":"0.00013190","OBJECT_NAME":"STARLINK-1681","MEAN_MOTION":"15.06397900","REF_FRAME":"TEME","ARG_OF_PERICENTER":"76.1781","MEAN_MOTION_DDOT":"0.0000000000000","SITE":"AFETR","RA_OF_ASC_NODE":"34.8445","MEAN_MOTION_DOT":"-0.00002246","CENTER_NAME":"EARTH","TIME_SYSTEM":"UTC","INCLINATION":"53.0551","EPOCH":"2021-11-11T17:30:41.512032","RCS_SIZE":"LARGE","REV_AT_EPOCH":"6193","APOAPSIS":"548.133","SEMIMAJOR_AXIS":"6925.355","ELEMENT_SET_NO":"999","PERIOD":"95.592"},{"TLE_LINE2":"2 46560  53.0557  50.3345 0001350  85.6206 274.4937 15.06410388 61711","PERIAPSIS":"546.247","BSTAR":"0.00018973000000","MEAN_ELEMENT_THEORY":"SGP4","COUNTRY_CODE":"US","GP_ID":"189525991","TLE_LINE1":"1 46560U 20070AE  21315.62321015  .00002546  00000-0  18973-3 0  9990","OBJECT_TYPE":"PAYLOAD","CLASSIFICATION_TYPE":"U","FILE":"3212485","NORAD_CAT_ID":"46560","MEAN_ANOMALY":"274.4937","EPHEMERIS_TYPE":"0","OBJECT_ID":"2020-070AE","LAUNCH_DATE":"2020-10-06","CENTER_NAME":"EARTH","MEAN_MOTION_DOT":"0.00002546","SITE":"AFETR","RA_OF_ASC_NODE":"50.3345","REF_FRAME":"TEME","MEAN_MOTION":"15.06410388","ARG_OF_PERICENTER":"85.6206","MEAN_MOTION_DDOT":"0.0000000000000","OBJECT_NAME":"STARLINK-1706","DECAY_DATE":null,"ECCENTRICITY":"0.00013500","PERIOD":"95.591","REV_AT_EPOCH":"6171","APOAPSIS":"548.117","ELEMENT_SET_NO":"999","SEMIMAJOR_AXIS":"6925.317","EPOCH":"2021-11-11T14:57:25.356960","RCS_SIZE":"LARGE","TIME_SYSTEM":"UTC","INCLINATION":"53.0557"},{"GP_ID":"189526241","TLE_LINE1":"1 46561U 20070AF  21315.77064694  .00001316  00000-0  10719-3 0  9998","OBJECT_TYPE":"PAYLOAD","TLE_LINE2":"2 46561  53.0551  49.6686 0001297  73.3827 286.7304 15.06410201 61738","PERIAPSIS":"546.284","BSTAR":"0.00010719000000","MEAN_ELEMENT_THEORY":"SGP4","COUNTRY_CODE":"US","LAUNCH_DATE":"2020-10-06","CLASSIFICATION_TYPE":"U","FILE":"3212485","NORAD_CAT_ID":"46561","MEAN_ANOMALY":"286.7304","EPHEMERIS_TYPE":"0","OBJECT_ID":"2020-070AF","SITE":"AFETR","RA_OF_ASC_NODE":"49.6686","MEAN_MOTION":"15.06410201","REF_FRAME":"TEME","MEAN_MOTION_DDOT":"0.0000000000000","ARG_OF_PERICENTER":"73.3827","ECCENTRICITY":"0.00012970","DECAY_DATE":null,"OBJECT_NAME":"STARLINK-1709","CENTER_NAME":"EARTH","MEAN_MOTION_DOT":"0.00001316","EPOCH":"2021-11-11T18:29:43.895616","RCS_SIZE":"LARGE","INCLINATION":"53.0551","TIME_SYSTEM":"UTC","PERIOD":"95.591","APOAPSIS":"548.081","REV_AT_EPOCH":"6173","SEMIMAJOR_AXIS":"6925.317","ELEMENT_SET_NO":"999"},{"EPOCH":"2021-11-11T18:33:03.511584","RCS_SIZE":"LARGE","INCLINATION":"53.0563","TIME_SYSTEM":"UTC","PERIOD":"95.592","APOAPSIS":"548.317","REV_AT_EPOCH":"6180","SEMIMAJOR_AXIS":"6925.350","ELEMENT_SET_NO":"999","RA_OF_ASC_NODE":"44.6550","SITE":"AFETR","REF_FRAME":"TEME","MEAN_MOTION":"15.06399399","ARG_OF_PERICENTER":"68.5081","MEAN_MOTION_DDOT":"0.0000000000000","ECCENTRICITY":"0.00015910","DECAY_DATE":null,"OBJECT_NAME":"STARLINK-1714","CENTER_NAME":"EARTH","MEAN_MOTION_DOT":"-0.00001560","LAUNCH_DATE":"2020-10-06","CLASSIFICATION_TYPE":"U","FILE":"3212485","NORAD_CAT_ID":"46562","MEAN_ANOMALY":"291.6078","EPHEMERIS_TYPE":"0","OBJECT_ID":"2020-070AG","GP_ID":"189527490","TLE_LINE1":"1 46562U 20070AG  21315.77295731 -.00001560  00000-0 -85845-4 0  9993","OBJECT_TYPE":"PAYLOAD","TLE_LINE2":"2 46562  53.0563  44.6550 0001591  68.5081 291.6078 15.06399399 61807","PERIAPSIS":"546.114","MEAN_ELEMENT_THEORY":"SGP4","BSTAR":"-0.00008584500000","COUNTRY_CODE":"US"},{"DECAY_DATE":null,"OBJECT_NAME":"STARLINK-1730","ECCENTRICITY":"0.00014410","REF_FRAME":"TEME","MEAN_MOTION":"15.06377570","ARG_OF_PERICENTER":"80.8584","MEAN_MOTION_DDOT":"0.0000000000000","RA_OF_ASC_NODE":"45.3194","SITE":"AFETR","MEAN_MOTION_DOT":"-0.00003343","CENTER_NAME":"EARTH","TIME_SYSTEM":"UTC","INCLINATION":"53.0550","EPOCH":"2021-11-11T14:55:28.105248","RCS_SIZE":"LARGE","APOAPSIS":"548.280","REV_AT_EPOCH":"6178","ELEMENT_SET_NO":"999","SEMIMAJOR_AXIS":"6925.417","PERIOD":"95.594","OBJECT_TYPE":"PAYLOAD","GP_ID":"189527741","TLE_LINE1":"1 46563U 20070AH  21315.62185307 -.00003343  00000-0 -20575-3 0  9994","COUNTRY_CODE":"US","BSTAR":"-0.00020575000000","MEAN_ELEMENT_THEORY":"SGP4","TLE_LINE2":"2 46563  53.0550  45.3194 0001441  80.8584 279.2568 15.06377570 61785","PERIAPSIS":"546.284","LAUNCH_DATE":"2020-10-06","OBJECT_ID":"2020-070AH","EPHEMERIS_TYPE":"0","FILE":"3212485","MEAN_ANOMALY":"279.2568","NORAD_CAT_ID":"46563","CLASSIFICATION_TYPE":"U"}];
